ENTRYSAT                
1 44429U 98067QP  19274.79411738  .00012789  00000-0  20907-3 0  9994
2 44429  51.6413 191.5205 0004074  86.3106 273.8350 15.52904916 14103
VCC C                   
1 44430U 98067QQ  19274.15176606  .00012838  00000-0  20954-3 0  9995
2 44430  51.6412 194.7311 0004299  91.6926 268.4556 15.52944762 12823
VCC B                   
1 44431U 98067QR  19274.15660776  .00010549  00000-0  17503-3 0  9995
2 44431  51.6416 194.7626 0004398  89.0168 271.1326 15.52707952 13944
